GLOBALSTAR M084         
1 38040U 11080A   25279.90278170 -.00000114  00000+0 -54861-4 0  9999
2 38040  52.0009  68.3687 0000464 102.6964  65.5638 12.62269283636776
GLOBALSTAR M080         
1 38041U 11080B   25279.87158059 -.00000116  00000+0 -66290-4 0  9990
2 38041  52.0059  70.0950 0001180  83.8763  71.7685 12.62269527636893
GLOBALSTAR M082         
1 38042U 11080C   25279.72731829 -.00000109  00000+0 -27718-4 0  9991
2 38042  52.0098  26.0075 0001004  95.4703  55.1192 12.62268842637589
GLOBALSTAR M092         
1 38043U 11080D   25280.02117274 -.00000071  00000+0  18307-3 0  9999
2 38043  52.0062 115.4983 0000847  85.0045  80.5220 12.62266742636074
GLOBALSTAR M090         
1 38044U 11080E   25279.99589583 -.00000102  00000+0  12078-4 0  9995
2 38044  52.0149  19.0648 0000762 113.5123  57.3413 12.62262556637737
GLOBALSTAR M086         
1 38045U 11080F   25280.02107738 -.00000102  00000+0  10309-4 0  9995
2 38045  51.9922  19.3297 0001048 176.9115 354.0469 12.62277805637685
GLOBALSTAR M097         
1 39072U 13005A   25280.01090516 -.00000088  00000+0  89014-4 0  9991
2 39072  52.0047 294.0296 0000446 108.9559 251.1356 12.62266321584937
GLOBALSTAR M093         
1 39073U 13005B   25279.98488599 -.00000084  00000+0  11189-3 0  9991
2 39073  52.0101 287.3594 0000606 116.5607 243.5322 12.62265062584885
